satname,norad_id,inclination_deg,eccentricity,mean_motion_rev_per_day,perigee_km,apogee_km,l1,l2
STARLINK-1168,45072,53.0533,0.0001389,15.06403388,546.2392447532993,548.1631036981007,1 45072U 20006AE  25300.83421654  .00001184  00000+0  98349-4 0  9999,2 45072  53.0533 143.0306 0001389  87.2727 272.8421 15.06403388316712
STARLINK-1172,45074,53.0532,0.0001224,15.06400101,546.3635857622394,548.0589110134442,1 45074U 20006AG  25300.84526656 -.00001865  00000+0 -10633-3 0  9997,2 45074  53.0532 142.9805 0001224  99.6796 260.4331 15.06400101316719
STARLINK-1153,45080,53.0523,0.0001717,15.06383098,546.0742693763841,548.4524518602211,1 45080U 20006AN  25299.89430228  .00000251  00000+0  35759-4 0  9998,2 45080  53.0523 147.2500 0001717  98.4569 261.6614 15.06383098316574
STARLINK-1151,45081,53.053,0.0001511,15.06396745,546.1751123879394,548.2679557369338,1 45081U 20006AP  25300.87477191  .00000800  00000+0  72629-4 0  9997,2 45081  53.0530 142.9227 0001511  92.2048 267.9114 15.06396745316721
STARLINK-1190,45083,53.0407,0.0002815,15.87938369,306.1815996702935,309.94593070109295,1 45083U 20006AR  25300.83334491  .00293227  00000+0  10275-2 0  9994,2 45083  53.0407  95.9620 0002815 224.7499 244.5390 15.87938369  5949
STARLINK-1173,45084,53.0315,0.0007965,16.22023124,208.81391328981317,219.3152904415856,1 45084U 20006AS  25300.83331263  .02509844  11891-4  10703-2 0  9997,2 45084  53.0315  55.3462 0007965 344.0276  16.0510 16.22023124317948
STARLINK-1185,45087,53.054,0.0001373,15.06402889,546.2518544422201,548.1535527248234,1 45087U 20006AV  25300.51906625  .00000081  00000+0  24309-4 0  9996,2 45087  53.0540 124.4420 0001373  90.4233 269.6913 15.06402889316958
STARLINK-1183,45088,53.0534,0.0001256,15.06401032,546.3385716271059,548.078218390332,1 45088U 20006AW  25300.54118074  .00000173  00000+0  30525-4 0  9992,2 45088  53.0534 124.3458 0001256  89.6345 270.4788 15.06401032316955
STARLINK-1176,45090,53.0398,0.0008544,16.11224914,237.82764516131374,249.14267310684227,1 45090U 20006AY  25300.83289174  .00821804  39432-3  78319-3 0  9996,2 45090  53.0398  54.1668 0008544 355.0096   5.0851 16.11224914317963
STARLINK-1142,45093,53.0346,0.0003415,15.60069467,385.14578367490503,389.76668385356606,1 45093U 20006BB  25300.83334491  .00182831  00000+0  21711-2 0  9990,2 45093  53.0346  57.7324 0003415 324.4076 171.5459 15.60069467  5967
STARLINK-1152,45096,53.0503,0.0008283,15.23434186,489.79787238949666,501.18472502913846,1 45096U 20006BE  25299.73830494  .00058040  00000+0  23985-2 0  9992,2 45096  53.0503 110.7420 0008283 148.8263 211.3226 15.23434186317072
STARLINK-1184,45098,53.0535,0.0001455,15.06406717,546.1833361573636,548.1986065970341,1 45098U 20006BG  25300.82131466  .00000644  00000+0  62090-4 0  9999,2 45098  53.0535 123.0873 0001455 101.2745 258.8407 15.06406717316997
STARLINK-1193,45100,53.0538,0.0001469,15.0640465,546.179974785051,548.2146380042695,1 45100U 20006BJ  25300.55223492  .00000417  00000+0  46854-4 0  9992,2 45100  53.0538 124.2964 0001469  89.3129 270.8029 15.06404650316959
STARLINK-1143,45179,53.0534,0.0008174,15.40067068,440.33321460604566,451.48916858967004,1 45179U 20012B   25300.88394895  .00042943  00000+0  10607-2 0  9992,2 45179  53.0534 247.3626 0008174  33.3972 326.7546 15.40067068315329
STARLINK-1202,45183,53.0551,0.0001545,15.06403811,546.1299132491677,548.2698423444062,1 45183U 20012F   25300.28316457  .00002330  00000+0  17527-3 0  9994,2 45183  53.0551 285.5063 0001545  84.7043 275.4122 15.06403811314732
STARLINK-1216,45185,53.0558,0.0001395,15.0640653,546.2254611691087,548.157627833024,1 45185U 20012H   25300.27579119  .00000921  00000+0  80700-4 0  9999,2 45185  53.0558 285.5362 0001395  85.3452 274.7696 15.06406530314679
STARLINK-1225,45187,53.0546,0.0001116,15.06404731,546.424190861726,547.9699254235047,1 45187U 20012K   25300.22786729  .00001653  00000+0  12980-3 0  9990,2 45187  53.0546 285.7521 0001116  83.6396 276.4720 15.06404731314719
STARLINK-1230,45189,53.0551,0.0001611,15.06408691,546.069252041536,548.300590764612,1 45189U 20012M   25300.23155301  .00000729  00000+0  67835-4 0  9992,2 45189  53.0551 285.7378 0001611  90.7878 269.3295 15.06408691311940
STARLINK-1234,45190,53.0537,0.0001984,15.35407426,458.3539661835339,461.06722410928705,1 45190U 20012N   25300.83334491  .00115671  00000+0  32752-2 0  9990,2 45190  53.0537 240.7939 0001984  91.2784 264.3751 15.35407426  5821
STARLINK-1269,45197,53.0544,0.0001421,15.06412987,546.1876685656298,548.1558413137836,1 45197U 20012V   25300.24260943  .00002976  00000+0  21852-3 0  9995,2 45197  53.0544 285.6889 0001421  88.7967 271.3185 15.06412987314691
STARLINK-1154,45198,53.0548,0.0001517,15.0639475,546.1770706616962,548.2782262960436,1 45198U 20012W   25300.89687223  .00001468  00000+0  11745-3 0  9996,2 45198  53.0548 262.7491 0001517  87.6236 272.4926 15.06394750315046
STARLINK-1199,45201,53.0546,0.0001498,15.06415108,546.1278442034954,548.2026647589382,1 45201U 20012Z   25300.17811076  .00006237  00000+0  43707-3 0  9999,2 45201  53.0546 265.9764 0001498  83.4850 276.6310 15.06415108314998
STARLINK-1209,45206,53.0544,0.0002009,15.30108059,474.11270883440466,476.86649600325654,1 45206U 20012AE  25300.87970042  .00014669  00000+0  50780-3 0  9997,2 45206  53.0544 241.0342 0002009  87.6364 272.4866 15.30108059314455
STARLINK-1210,45207,53.0241,0.0012789,15.55618032,391.6876658697993,409.02569700818367,1 45207U 20012AF  25300.83334491  .00095285  00000+0  13508-2 0  9995,2 45207  53.0241 204.1740 0012789  54.4320 254.3195 15.55618032  5952
STARLINK-1231,45212,53.0512,0.0005794,15.1193577,526.2942614349913,534.2997547635769,1 45212U 20012AL  25300.20996483  .00036685  00000+0  21216-2 0  9991,2 45212  53.0512 264.3433 0005794  28.6877 331.4432 15.11935770314973
STARLINK-1271,45217,53.0556,0.0001759,15.0639495,546.0088639703372,548.4452070380275,1 45217U 20012AR  25300.89318786  .00001583  00000+0  12518-3 0  9990,2 45217  53.0556 262.7662 0001759  88.5376 271.5814 15.06394950315105
STARLINK-1191,45222,53.0547,0.0001611,15.06396773,546.1057730001476,548.3371234921724,1 45222U 20012AW  25300.57067516  .00005367  00000+0  37894-3 0  9991,2 45222  53.0547 244.2129 0001611  84.6780 275.4393 15.06396773315332
STARLINK-1212,45223,53.0537,0.0001992,15.06405238,545.8159780343549,548.5750305040556,1 45223U 20012AX  25300.85457086  .00002188  00000+0  16574-3 0  9998,2 45223  53.0537 243.5925 0001992 102.7376 257.3836 15.06405238315375
STARLINK-1215,45225,53.0544,0.0001597,15.06404336,546.0922927122319,548.3042447970711,1 45225U 20012AZ  25300.81026284  .00002606  00000+0  19378-3 0  9998,2 45225  53.0544 243.1382 0001597  88.8727 271.2445 15.06404336315327
STARLINK-1221,45227,53.0662,0.0001878,15.36592916,454.9096972002708,457.4766716175336,1 45227U 20012BB  25300.87262622  .00016800  00000+0  47310-3 0  9992,2 45227  53.0662 176.4540 0001878 340.4073  19.6857 15.36592916316256
STARLINK-1222,45228,53.0544,0.0001316,15.06394067,546.3183635252308,548.1411200516695,1 45228U 20012BC  25300.84343588  .00001722  00000+0  13449-3 0  9994,2 45228  53.0544 242.9883 0001316  92.1897 267.9243 15.06394067315268
STARLINK-1226,45229,53.0543,7.44e-05,15.06435186,546.5884821054542,547.618957924592,1 45229U 20012BD  25300.87288677  .00010051  00000+0  69204-3 0  9990,2 45229  53.0543 242.8545 0000744 217.7427 142.3510 15.06435186315272
STARLINK-1227,45230,53.0524,0.0001842,15.06403496,545.9251959917947,548.4764904532376,1 45230U 20012BE  25300.86923267  .00002200  00000+0  16656-3 0  9992,2 45230  53.0524 242.8738 0001842  92.1721 267.9478 15.06403496315398
STARLINK-1246,45235,53.0543,0.0001378,15.06411648,546.2215506139964,548.130166837861,1 45235U 20012BK  25300.28684436  .00005323  00000+0  37587-3 0  9990,2 45235  53.0543 285.4867 0001378  85.3351 274.7796 15.06411648314753
STARLINK-1270,45237,53.0532,0.0001392,15.06392658,546.2700485506493,548.1980718538098,1 45237U 20012BM  25300.82132763  .00001987  00000+0  15228-3 0  9993,2 45237  53.0532 243.0871 0001392 100.1963 259.9183 15.06392658315372
STARLINK-1279,45360,53.0537,0.0001179,15.33448751,464.72514558716284,466.3388827407034,1 45360U 20019A   25300.83334491  .00017125  00000+0  53248-3 0  9995,2 45360  53.0537  11.1635 0001179  36.8267 134.2198 15.33448751  5622
STARLINK-1301,45361,53.0528,0.0001438,15.35784572,457.6079709606711,459.5742139600625,1 45361U 20019B   25300.83334491  .00030048  00000+0  85823-3 0  9999,2 45361  53.0528  20.9567 0001438  40.9200 301.7211 15.35784572  5775
STARLINK-1306,45362,53.0474,0.0006362,15.68003559,360.32462101406054,368.904097843797,1 45362U 20019C   25300.83334491  .00049333  00000+0  43888-3 0  9992,2 45362  53.0474  11.9880 0006362 284.3440 101.5688 15.68003559  5820
STARLINK-1262,45366,53.0554,0.0001546,15.06431894,546.0431653714013,548.1844529215887,1 45366U 20019G   25300.73282152  .00004116  00000+0  29479-3 0  9991,2 45366  53.0554  43.4799 0001546  80.5282 279.5882 15.06431894309694
STARLINK-1273,45367,53.0551,0.0001217,15.06408853,546.3416132838147,548.0272365186365,1 45367U 20019H   25300.55590713  .00000509  00000+0  53040-4 0  9991,2 45367  53.0551  44.2776 0001217  96.9273 263.1854 15.06408853309666
STARLINK-1276,45368,53.055,0.0001417,15.0642702,546.1474366113598,548.1100569239934,1 45368U 20019J   25300.65912734  .00012570  00000+0  86062-3 0  9994,2 45368  53.0550  43.8159 0001417  84.6738 275.4412 15.06427020309683
STARLINK-1277,45369,53.0555,0.0001064,15.0641126,546.4401944602841,547.9139012896712,1 45369U 20019K   25300.58547777 -.00001990  00000+0 -11469-3 0  9993,2 45369  53.0555  44.7739 0001064  96.7165 263.3945 15.06411260309663
STARLINK-1281,45370,53.0565,0.0001425,15.06408169,546.1996626411938,548.1733798447476,1 45370U 20019L   25300.64805698  .00000784  00000+0  71511-4 0  9994,2 45370  53.0565  43.8673 0001425  84.6855 275.4296 15.06408169309685
